ONEWEB-0560             
1 55145U 23004F   25158.62520803  .00000049  00000+0  90523-4 0  9991
2 55145  87.9148  49.9237 0001959  88.1314 272.0042 13.18688732120346
ONEWEB-0565             
1 55146U 23004G   25158.61889350  .00000002  00000+0 -27687-4 0  9997
2 55146  87.9144  49.9857 0002405  82.6972 277.4433 13.18687063120335
ONEWEB-0567             
1 55147U 23004H   25158.46081864  .00000049  00000+0  90753-4 0  9999
2 55147  87.9145  49.9731 0002213  87.2643 272.8742 13.18687110120314
ONEWEB-0569             
1 55148U 23004J   25158.59524275 -.00000180  00000+0 -52774-3 0  9990
2 55148  87.8981  34.6427 0002480 102.6312 257.5095 13.13469732121007
ONEWEB-0570             
1 55149U 23004K   25158.44817620  .00000012  00000+0 -34121-5 0  9995
2 55149  87.9144  49.9783 0002377  69.1926 290.9461 13.18686684120309
ONEWEB-0571             
1 55150U 23004L   25158.44186035 -.00000022  00000+0 -89651-4 0  9995
2 55150  87.9142  49.9870 0003048  92.7086 267.4395 13.18684915120312
ONEWEB-0572             
1 55151U 23004M   25158.54653114  .00000032  00000+0  48208-4 0  9996
2 55151  87.9070  80.4560 0002223  76.6299 283.5080 13.17651092118147
ONEWEB-0573             
1 55152U 23004N   25158.13201935  .00000087  00000+0  18664-3 0  9994
2 55152  87.9144  50.0554 0002780  80.7194 279.4252 13.18686427120266
